NORAD_CAT_ID,OBJECT_NAME,OBJECT_TYPE,EPOCH,MEAN_MOTION,ECCENTRICITY,INCLINATION,RA_OF_ASC_NODE,ARG_OF_PERICENTER,MEAN_ANOMALY,BSTAR,MEAN_MOTION_DOT,MEAN_MOTION_DDOT,TLE_LINE0,TLE_LINE1,TLE_LINE2,SEMIMAJOR_AXIS,PERIOD,APOGEE,PERIGEE,DECAYED
53154.0,STARLINK-4077,PAYLOAD,2023-12-13 23:57:12,15.088348,0.0001591,53.2157,230.3971,80.8085,279.3087,-0.00025101,-4.28e-05,0.0,0 STARLINK-4077,1 53154U 22083Y   23347.99806575 -.00004280  00000-0 -25101-3 0  9999,2 53154  53.2157 230.3971 0001591  80.8085 279.3087 15.08834800 78696,6917.896,95.438,540.862,538.661,0.0
53154.0,STARLINK-4077,PAYLOAD,2023-12-14 20:37:15,15.08823075,0.0001365,53.2152,226.529,83.1945,276.9203,-7.1479e-05,-1.425e-05,0.0,0 STARLINK-4077,1 53154U 22083Y   23348.85920244 -.00001425  00000-0 -71479-4 0  9993,2 53154  53.2152 226.5290 0001365  83.1945 276.9203 15.08823075 78822,6917.932,95.439,540.741,538.853,0.0
53154.0,STARLINK-4077,PAYLOAD,2023-12-14 22:12:38,15.08825925,0.0001594,53.2149,226.2314,70.8149,289.3016,-1.389e-05,-5.09e-06,0.0,0 STARLINK-4077,1 53154U 22083Y   23348.92544269 -.00000509  00000-0 -13890-4 0  9995,2 53154  53.2149 226.2314 0001594  70.8149 289.3016 15.08825925 78203,6917.923,95.438,540.891,538.686,0.0
53154.0,STARLINK-4077,PAYLOAD,2023-12-14 23:48:01,15.08827756,0.0001874,53.216,225.935,64.9064,295.2122,3.8756e-05,3.29e-06,0.0,0 STARLINK-4077,1 53154U 22083Y   23348.99168384  .00000329  00000-0  38756-4 0  9998,2 53154  53.2160 225.9350 0001874  64.9064 295.2122 15.08827756 78212,6917.918,95.438,541.079,538.486,0.0
53154.0,STARLINK-4077,PAYLOAD,2023-12-15 22:03:25,15.08845427,0.0001809,53.2149,221.7715,65.4224,294.6956,0.0004807,7.372e-05,0.0,0 STARLINK-4077,1 53154U 22083Y   23349.91904224  .00007372  00000-0  48070-3 0  9996,2 53154  53.2149 221.7715 0001809  65.4224 294.6956 15.08845427 78358,6917.864,95.437,540.98,538.477,0.0
53154.0,STARLINK-4077,PAYLOAD,2023-12-16 20:18:48,15.08863476,0.00016,53.2142,217.6049,72.5247,287.592,0.00049699,7.635e-05,0.0,0 STARLINK-4077,1 53154U 22083Y   23350.84639073  .00007635  00000-0  49699-3 0  9997,2 53154  53.2142 217.6049 0001600  72.5247 287.5920 15.08863476 78499,6917.809,95.436,540.78,538.567,0.0
53154.0,STARLINK-4077,PAYLOAD,2023-12-17 20:09:34,15.08856634,0.0001785,53.2151,213.1452,106.5164,253.6025,0.00023831,3.508e-05,0.0,0 STARLINK-4077,1 53154U 22083Y   23351.83998330  .00003508  00000-0  23831-3 0  9996,2 53154  53.2151 213.1452 0001785 106.5164 253.6025 15.08856634 79273,6917.83,95.437,540.929,538.46,0.0
53154.0,STARLINK-4077,PAYLOAD,2023-12-17 21:44:57,15.08854951,0.0001541,53.2143,212.8503,96.5872,263.5295,0.0002195,3.208e-05,0.0,0 STARLINK-4077,1 53154U 22083Y   23351.90622380  .00003208  00000-0  21950-3 0  9990,2 53154  53.2143 212.8503 0001541  96.5872 263.5295 15.08854951 78651,6917.835,95.437,540.766,538.634,0.0
53154.0,STARLINK-4077,PAYLOAD,2023-12-18 20:00:21,15.0884073,0.0001854,53.2154,208.6825,117.9943,242.1237,3.2575e-05,2.3e-06,0.0,0 STARLINK-4077,1 53154U 22083Y   23352.83358366  .00000230  00000-0  32575-4 0  9991,2 53154  53.2154 208.6825 0001854 117.9943 242.1237 15.08840730 79422,6917.878,95.438,541.026,538.461,0.0
53154.0,STARLINK-4077,PAYLOAD,2023-12-18 21:35:44,15.0883721,0.000164,53.2151,208.3858,109.4848,250.6321,-7.9731e-06,-4.15e-06,0.0,0 STARLINK-4077,1 53154U 22083Y   23352.89982562 -.00000415  00000-0 -79731-5 0  9991,2 53154  53.2151 208.3858 0001640 109.4848 250.6321 15.08837210 78803,6917.889,95.438,540.888,538.619,0.0
53154.0,STARLINK-4077,PAYLOAD,2023-12-19 19:51:09,15.08838448,0.0001643,53.2155,204.2251,111.9411,248.1756,5.4239e-06,-2.02e-06,0.0,0 STARLINK-4077,1 53154U 22083Y   23353.82718960 -.00000202  00000-0  54239-5 0  9993,2 53154  53.2155 204.2251 0001643 111.9411 248.1756 15.08838448 79579,6917.885,95.438,540.887,538.614,0.0
53154.0,STARLINK-4077,PAYLOAD,2023-12-20 21:17:19,15.08843282,0.000139,53.2148,199.4626,83.1457,276.9693,0.00020909,3.042e-05,0.0,0 STARLINK-4077,1 53154U 22083Y   23354.88703140  .00003042  00000-0  20909-3 0  9993,2 53154  53.2148 199.4626 0001390  83.1457 276.9693 15.08843282 79101,6917.87,95.437,540.697,538.774,0.0
53154.0,STARLINK-4077,PAYLOAD,2023-12-21 21:08:07,15.08830731,0.0001629,53.2154,195.005,72.5674,287.5496,0.00036429,5.513e-05,0.0,0 STARLINK-4077,1 53154U 22083Y   23355.88064089  .00005513  00000-0  36429-3 0  9995,2 53154  53.2154 195.0050 0001629  72.5674 287.5496 15.08830731 79259,6917.909,95.438,540.901,538.647,0.0
53154.0,STARLINK-4077,PAYLOAD,2023-12-22 19:23:30,15.08846896,0.0001636,53.2152,190.842,71.3754,288.7415,0.00017296,2.466e-05,0.0,0 STARLINK-4077,1 53154U 22083Y   23356.80799284  .00002466  00000-0  17296-3 0  9995,2 53154  53.2152 190.8420 0001636  71.3754 288.7415 15.08846896 80025,6917.859,95.437,540.856,538.593,0.0
53154.0,STARLINK-4077,PAYLOAD,2023-12-23 12:52:45,15.08843418,0.0001505,53.2142,187.576,78.8905,281.2257,0.00012537,1.708e-05,0.0,0 STARLINK-4077,1 53154U 22083Y   23357.53663440  .00001708  00000-0  12537-3 0  9991,2 53154  53.2142 187.5760 0001505  78.8905 281.2257 15.08843418 79509,6917.87,95.437,540.776,538.694,0.0
53154.0,STARLINK-4077,PAYLOAD,2023-12-23 19:14:17,15.08841252,0.0001418,53.2143,186.3835,84.562,275.5534,8.111e-05,1.003e-05,0.0,0 STARLINK-4077,1 53154U 22083Y   23357.80159489  .00001003  00000-0  81110-4 0  9996,2 53154  53.2143 186.3835 0001418  84.5620 275.5534 15.08841252 80174,6917.877,95.437,540.723,538.761,0.0
53154.0,STARLINK-4077,PAYLOAD,2023-12-24 12:43:32,15.08842238,0.0001466,53.2145,183.1119,88.5426,271.5734,0.00012394,1.685e-05,0.0,0 STARLINK-4077,1 53154U 22083Y   23358.53023385  .00001685  00000-0  12394-3 0  9995,2 53154  53.2145 183.1119 0001466  88.5426 271.5734 15.08842238 79651,6917.874,95.437,540.753,538.724,0.0
53154.0,STARLINK-4077,PAYLOAD,2023-12-24 19:05:04,15.08845278,0.0001488,53.2148,181.9232,87.2058,272.9104,0.00014741,2.059e-05,0.0,0 STARLINK-4077,1 53154U 22083Y   23358.79519194  .00002059  00000-0  14741-3 0  9995,2 53154  53.2148 181.9232 0001488  87.2058 272.9104 15.08845278 79694,6917.864,95.437,540.759,538.7,0.0
53154.0,STARLINK-4077,PAYLOAD,2023-12-25 12:34:19,15.08838685,0.0001524,53.2164,178.6532,87.4554,272.6613,8.9108e-05,1.13e-05,0.0,0 STARLINK-4077,1 53154U 22083Y   23359.52383475  .00001130  00000-0  89108-4 0  9997,2 53154  53.2164 178.6532 0001524  87.4554 272.6613 15.08838685 80432,6917.884,95.438,540.804,538.695,0.0
53154.0,STARLINK-4077,PAYLOAD,2023-12-25 17:20:28,15.08837376,0.0001383,53.2154,177.7596,81.9157,278.1992,5.4667e-05,5.82e-06,0.0,0 STARLINK-4077,1 53154U 22083Y   23359.72255594  .00000582  00000-0  54667-4 0  9991,2 53154  53.2154 177.7596 0001383  81.9157 278.1992 15.08837376 79831,6917.888,95.438,540.71,538.797,0.0
53154.0,STARLINK-4077,PAYLOAD,2023-12-26 12:25:06,15.08839262,0.0001389,53.2154,174.1908,81.759,278.3559,2.2412e-05,6.9e-07,0.0,0 STARLINK-4077,1 53154U 22083Y   23360.51743688  .00000069  00000-0  22412-4 0  9999,2 53154  53.2154 174.1908 0001389  81.7590 278.3559 15.08839262 79954,6917.883,95.438,540.709,538.787,0.0
53154.0,STARLINK-4077,PAYLOAD,2023-12-26 18:46:38,15.08840914,0.0001379,53.2158,173.0012,80.534,279.5808,2.2494e-05,7e-07,0.0,0 STARLINK-4077,1 53154U 22083Y   23360.78239508  .00000070  00000-0  22494-4 0  9991,2 53154  53.2158 173.0012 0001379  80.5340 279.5808 15.08840914 80623,6917.878,95.437,540.697,538.789,0.0
53154.0,STARLINK-4077,PAYLOAD,2023-12-27 13:51:16,15.08836205,0.0001375,53.2159,169.4324,77.093,283.0216,6.0749e-05,6.79e-06,0.0,0 STARLINK-4077,1 53154U 22083Y   23361.57727869  .00000679  00000-0  60749-4 0  9991,2 53154  53.2159 169.4324 0001375  77.0930 283.0216 15.08836205 80116,6917.892,95.438,540.708,538.806,0.0
53154.0,STARLINK-4077,PAYLOAD,2023-12-27 21:48:12,15.08838643,0.0001338,53.2159,167.9448,83.0871,277.0273,7.0368e-05,8.32e-06,0.0,0 STARLINK-4077,1 53154U 22083Y   23361.90847666  .00000832  00000-0  70368-4 0  9995,2 53154  53.2159 167.9448 0001338  83.0871 277.0273 15.08838643 80165,6917.885,95.438,540.675,538.824,0.0
53154.0,STARLINK-4077,PAYLOAD,2023-12-28 20:03:36,15.08839544,0.0001329,53.2162,163.7806,88.1157,271.9987,3.5468e-05,2.77e-06,0.0,0 STARLINK-4077,1 53154U 22083Y   23362.83583817  .00000277  00000-0  35468-4 0  9998,2 53154  53.2162 163.7806 0001329  88.1157 271.9987 15.08839544 80306,6917.882,95.438,540.666,538.827,0.0
53154.0,STARLINK-4077,PAYLOAD,2023-12-29 11:57:27,15.08838664,0.00013,53.2159,160.8071,91.4223,268.6918,4.4079e-05,4.14e-06,0.0,0 STARLINK-4077,1 53154U 22083Y   23363.49823958  .00000414  00000-0  44079-4 0  9995,2 53154  53.2159 160.8071 0001300  91.4223 268.6918 15.08838664 81034,6917.884,95.438,540.649,538.85,0.0
53154.0,STARLINK-4077,PAYLOAD,2023-12-29 13:32:51,15.08837823,0.0001279,53.2158,160.51,92.4043,267.7095,3.4359e-05,2.59e-06,0.0,0 STARLINK-4077,1 53154U 22083Y   23363.56448011  .00000259  00000-0  34359-4 0  9993,2 53154  53.2158 160.5100 0001279  92.4043 267.7095 15.08837823 80412,6917.887,95.438,540.637,538.867,0.0
53154.0,STARLINK-4077,PAYLOAD,2023-12-29 18:19:00,15.08840263,0.0001276,53.2159,159.618,90.138,269.9758,5.0384e-05,5.14e-06,0.0,0 STARLINK-4077,1 53154U 22083Y   23363.76319828  .00000514  00000-0  50384-4 0  9998,2 53154  53.2159 159.6180 0001276  90.1380 269.9758 15.08840263 80441,6917.88,95.438,540.627,538.862,0.0
53154.0,STARLINK-4077,PAYLOAD,2023-12-30 14:59:01,15.08840496,0.0001286,53.2158,155.7533,87.0863,273.0277,4.8697e-05,4.87e-06,0.0,0 STARLINK-4077,1 53154U 22083Y   23364.62431883  .00000487  00000-0  48697-4 0  9993,2 53154  53.2158 155.7533 0001286  87.0863 273.0277 15.08840496 80575,6917.879,95.438,540.634,538.854,0.0
53154.0,STARLINK-4077,PAYLOAD,2023-12-30 19:45:10,15.08844268,0.0001293,53.216,154.8603,88.8277,271.2863,7.6741e-05,9.34e-06,0.0,0 STARLINK-4077,1 53154U 22083Y   23364.82303528  .00000934  00000-0  76741-4 0  9997,2 53154  53.2160 154.8603 0001293  88.8277 271.2863 15.08844268 81238,6917.867,95.437,540.627,538.838,0.0
